OBJECT_NAME,OBJECT_ID,EPOCH,MEAN_MOTION,ECCENTRICITY,INCLINATION,RA_OF_ASC_NODE,ARG_OF_PERICENTER,MEAN_ANOMALY,EPHEMERIS_TYPE,CLASSIFICATION_TYPE,NORAD_CAT_ID,ELEMENT_SET_NO,REV_AT_EPOCH,BSTAR,MEAN_MOTION_DOT,MEAN_MOTION_DDOT
SES-2,2011-049A,2026-07-17T02:35:39.223104,1.00271974,.0002701,0.1330,90.9243,23.1237,132.7856,0,U,37809,999,5426,0,-.206E-5,0
ARABSAT-5C,2011-049B,2026-07-17T03:06:10.637856,1.00272292,.0003549,0.0524,24.9791,107.5256,228.9754,0,U,37810,999,5433,0,.113E-5,0
EUTELSAT 7 WEST A,2011-051A,2026-07-17T02:37:38.538048,1.00271194,.000469,0.0614,352.7395,135.8946,198.3753,0,U,37816,999,5417,0,-.71E-6,0
QUETZSAT 1,2011-054A,2026-07-16T23:13:18.652800,1.00269355,.0002777,0.0485,269.2367,214.9715,81.9047,0,U,37826,999,5017,0,-.252E-5,0
INTELSAT 18 (IS-18),2011-056A,2026-07-17T03:51:51.258816,1.00272226,.0001802,0.0301,236.9189,251.3969,44.6195,0,U,37834,999,5411,0,.43E-6,0
EUTELSAT 16A,2011-057A,2026-07-17T03:05:03.245856,1.00274630,.0005762,0.0420,25.7382,87.3427,244.1588,0,U,37836,999,763,0,.94E-6,0
VIASAT-1,2011-059A,2026-07-17T01:16:33.220128,1.00271393,.000223,0.0226,59.0485,50.6009,89.2654,0,U,37843,999,4762,0,0,0
ASIASAT 7,2011-069A,2026-07-17T00:05:20.072256,1.00271291,.0001252,0.0206,72.0351,15.6437,313.9953,0,U,37933,999,4515,0,-.344E-5,0
BEIDOU-2 IGSO-5,2011-073A,2026-07-02T17:30:18.330912,1.00270596,.01145273,47.6496,271.3544,222.0502,141.5350,0,U,37948,999,5329,0,-.128E-5,0
LUCH-5A,2011-074B,2026-07-16T20:57:31.258080,1.00273389,.0002667,8.8274,73.3694,60.5336,282.1722,0,U,37951,999,5334,0,-.63E-6,0
NIGCOMSAT 1R,2011-077A,2026-07-17T03:12:40.016736,1.00271864,.0002497,0.0314,111.6018,237.9208,36.0771,0,U,38014,999,5325,0,.135E-5,0
WGS F4 (USA 233),2012-003A,2026-07-17T01:43:06.404160,1.00271707,.0000653,0.0195,43.2462,115.8903,249.9384,0,U,38070,999,4444,0,-.225E-5,0
SES-4,2012-007A,2026-07-17T04:14:38.550048,1.00273492,.0002551,0.0221,37.7487,79.9668,218.9491,0,U,38087,999,5252,0,-.178E-5,0
BEIDOU-2 G5,2012-008A,2026-07-17T03:17:17.074752,1.00270818,.0007311,3.6466,69.5053,268.5365,64.8902,0,U,38091,999,5266,0,.46E-6,0
MUOS-1,2012-009A,2026-07-17T02:31:54.582240,1.00271671,.0056738,5.5352,47.1116,3.5583,182.2863,0,U,38093,999,5274,0,-.14E-5,0
INTELSAT 22 (IS-22),2012-011A,2026-07-17T01:38:21.857856,1.00271909,.0001842,0.0169,51.2847,75.2995,264.9948,0,U,38098,999,748,0,-.69E-6,0
APSTAR-7,2012-013A,2026-07-17T01:51:38.672352,1.00270983,.0002967,0.0265,91.5157,35.6094,272.1839,0,U,38107,999,5210,0,-.111E-5,0
YAHSAT 1B,2012-016A,2026-07-17T03:14:02.386176,1.00262119,.0002488,0.0871,88.6509,25.8362,276.5725,0,U,38245,999,4590,0,.117E-5,0
AEHF-2 (USA 235),2012-019A,2026-07-16T22:19:38.550720,1.00272112,.0002188,6.7168,57.2614,60.3970,135.5222,0,U,38254,999,728,0,-.148E-5,0
JCSAT-13,2012-023A,2026-07-17T02:39:38.837088,1.00269438,.0002532,0.0177,38.9737,85.6335,334.2261,0,U,38331,999,5184,0,-.367E-5,0
VINASAT-2,2012-023B,2026-07-17T04:05:38.733216,1.00269971,.0002223,0.0234,326.3559,151.6588,10.2241,0,U,38332,999,4696,0,-.339E-5,0
NIMIQ 6,2012-026A,2026-07-17T02:34:31.830240,1.00271497,.0002754,0.0662,264.9880,216.0705,121.4028,0,U,38342,999,5071,0,-.184E-5,0
ZHONGXING-2A,2012-028A,2026-07-17T02:17:21.689088,1.00269721,.0001414,1.5299,83.4886,41.3352,302.6775,0,U,38352,999,5159,0,-.303E-5,0
INTELSAT 19 (IS-19),2012-030A,2026-07-17T03:47:51.643104,1.00271760,.0002866,0.0186,41.0723,74.6663,42.1889,0,U,38356,999,5075,0,-.67E-6,0
ECHOSTAR 17,2012-035A,2026-07-17T02:29:54.773088,1.00270857,.0002085,0.0180,44.8190,66.6356,113.8418,0,U,38551,999,5136,0,-.85E-6,0
METEOSAT-10 (MSG-3),2012-035B,2026-07-16T18:27:20.253024,1.00271271,.0001221,4.7400,60.8739,16.6665,133.9327,0,U,38552,999,5115,0,-.19E-6,0
SES-5,2012-036A,2026-07-17T02:29:38.592096,1.00271759,.0001966,0.0442,323.1939,153.0082,221.1059,0,U,38652,999,4475,0,.23E-6,0
INTELSAT 20 (IS-20),2012-043A,2026-07-17T01:37:21.954144,1.00270598,.000126,0.0110,61.8578,119.1700,206.7087,0,U,38740,999,5104,0,-.34E-6,0
HYLAS 2,2012-043B,2026-07-17T02:39:46.327104,1.00272414,.0002351,2.5028,80.7045,56.2794,125.3113,0,U,38741,999,5107,0,-.269E-5,0
INTELSAT 21 (IS-21),2012-045A,2026-07-17T02:43:54.721056,1.00272417,.0001615,0.0481,246.2144,241.0925,150.6068,0,U,38749,999,5082,0,-.295E-5,0
ASTRA 2F,2012-051A,2026-07-17T03:08:32.911008,1.00270382,.0002997,0.0840,255.4790,287.5774,187.1826,0,U,38778,999,4143,0,.14E-5,0
GSAT-10,2012-051B,2026-07-17T03:24:08.915904,1.00272744,.0007444,0.0859,264.4590,190.3180,334.2173,0,U,38779,999,5039,0,-.175E-5,0
